2025-313BC              
1 67298U 25313BC  26068.18968176  .00075331  00000+0  26410-2 0  9997
2 67298  97.3985 144.8110 0008478 328.9209  31.1528 15.29126358  7890
STARLINK-36549          
1 67510U 26012T   26068.08057952  .00022153  00000+0  81221-3 0  9997
2 67510  42.9999 317.3954 0001563 262.2929  97.7745 15.27576100  7675
